NORAD_CAT_ID,OBJECT_NAME,OBJECT_TYPE,EPOCH,MEAN_MOTION,ECCENTRICITY,INCLINATION,RA_OF_ASC_NODE,ARG_OF_PERICENTER,MEAN_ANOMALY,BSTAR,MEAN_MOTION_DOT,MEAN_MOTION_DDOT,TLE_LINE0,TLE_LINE1,TLE_LINE2,SEMIMAJOR_AXIS,PERIOD,APOGEE,PERIGEE,DECAYED
55660.0,STARLINK-5467,PAYLOAD,2023-10-23 10:25:46,14.98319296,0.0002632,70.0018,193.8248,281.5424,78.5439,-2.9356e-05,-4.43e-06,0.0,0 STARLINK-5467,1 55660U 23021AJ  23296.43456066 -.00000443  00000-0 -29356-4 0  9998,2 55660  70.0018 193.8248 0002632 281.5424  78.5439 14.98319296 38924,6950.226,96.108,573.92,570.262,0.0
55660.0,STARLINK-5467,PAYLOAD,2023-10-23 20:02:33,14.98333455,0.0003017,70.0001,192.8135,271.3588,88.7225,-0.00016946,-2.115e-05,0.0,0 STARLINK-5467,1 55660U 23021AJ  23296.83511301 -.00002115  00000-0 -16946-3 0  9994,2 55660  70.0001 192.8135 0003017 271.3588  88.7225 14.98333455 38981,6950.182,96.107,574.144,569.95,0.0
55660.0,STARLINK-5467,PAYLOAD,2023-10-23 21:38:41,14.98334069,0.0003041,69.9999,192.6453,272.1003,87.9808,-0.00015875,-1.987e-05,0.0,0 STARLINK-5467,1 55660U 23021AJ  23296.90187223 -.00001987  00000-0 -15875-3 0  9990,2 55660  69.9999 192.6453 0003041 272.1003  87.9808 14.98334069 39298,6950.18,96.107,574.159,569.932,0.0
55660.0,STARLINK-5467,PAYLOAD,2023-10-24 10:27:45,14.98343097,0.0002947,70.0004,191.3007,273.268,86.8142,-0.0001266,-1.604e-05,0.0,0 STARLINK-5467,1 55660U 23021AJ  23297.43594338 -.00001604  00000-0 -12660-3 0  9993,2 55660  70.0004 191.3007 0002947 273.2680  86.8142 14.98343097 39072,6950.152,96.106,574.066,569.969,0.0
55660.0,STARLINK-5467,PAYLOAD,2023-10-25 21:42:43,14.98330555,0.0002534,70.0013,187.5977,263.5495,96.5375,-3.6283e-05,-5.26e-06,0.0,0 STARLINK-5467,1 55660U 23021AJ  23298.90466850 -.00000526  00000-0 -36283-4 0  9993,2 55660  70.0013 187.5977 0002534 263.5495  96.5375 14.98330555 39298,6950.191,96.107,573.817,570.295,0.0
55660.0,STARLINK-5467,PAYLOAD,2023-10-26 02:31:07,14.9833141,0.0002846,70.0001,187.092,272.305,87.7783,2.9024e-05,2.53e-06,0.0,0 STARLINK-5467,1 55660U 23021AJ  23299.10494600  .00000253  00000-0  29024-4 0  9990,2 55660  70.0001 187.0920 0002846 272.3050  87.7783 14.98331410 39622,6950.189,96.107,574.032,570.076,0.0
55660.0,STARLINK-5467,PAYLOAD,2023-10-26 20:08:35,14.98333904,0.0002829,70.0003,185.2408,271.5298,88.5537,-6.8515e-05,-9.1e-06,0.0,0 STARLINK-5467,1 55660U 23021AJ  23299.83930517 -.00000910  00000-0 -68515-4 0  9992,2 55660  70.0003 185.2408 0002829 271.5298  88.5537 14.98333904 39739,6950.181,96.107,574.012,570.08,0.0
55660.0,STARLINK-5467,PAYLOAD,2023-10-27 02:33:07,14.98340333,0.0002945,70.0003,184.5677,273.9272,86.155,1.2132e-05,5.2e-07,0.0,0 STARLINK-5467,1 55660U 23021AJ  23300.10633774  .00000052  00000-0  12132-4 0  9999,2 55660  70.0003 184.5677 0002945 273.9272  86.1550 14.98340333 39470,6950.161,96.106,574.073,569.979,0.0
55660.0,STARLINK-5467,PAYLOAD,2023-10-27 15:21:48,14.98573643,0.0005074,69.9998,183.2204,258.9837,101.0751,0.002407,0.00028932,0.0,0 STARLINK-5467,1 55660U 23021AJ  23300.64014096  .00028932  00000-0  24070-2 0  9997,2 55660  69.9998 183.2204 0005074 258.9837 101.0751 14.98573643 39559,6949.44,96.091,574.831,567.778,0.0
55660.0,STARLINK-5467,PAYLOAD,2023-10-27 21:47:18,14.97857176,0.0001235,69.9992,182.5483,301.1008,59.0029,-0.0054563,-0.00063817,0.0,0 STARLINK-5467,1 55660U 23021AJ  23300.90785235 -.00063817  00000-0 -54563-2 0  9999,2 55660  69.9992 182.5483 0001235 301.1008  59.0029 14.97857176 39892,6951.655,96.137,574.379,572.662,0.0
55660.0,STARLINK-5467,PAYLOAD,2023-10-28 00:59:00,14.98325542,0.0003176,69.9991,182.2106,276.1732,83.9065,-0.00010614,-1.359e-05,0.0,0 STARLINK-5467,1 55660U 23021AJ  23301.04097223 -.00001359  00000-0 -10614-3 0  9991,2 55660  69.9991 182.2106 0003176 276.1732  83.9065 14.98325542 39615,6950.207,96.107,574.279,569.864,0.0
55660.0,STARLINK-5467,PAYLOAD,2023-10-28 08:59:40,14.98330296,0.0003063,69.9993,181.3688,274.9134,85.1676,-8.8758e-05,-1.152e-05,0.0,0 STARLINK-5467,1 55660U 23021AJ  23301.37477031 -.00001152  00000-0 -88758-4 0  9992,2 55660  69.9993 181.3688 0003063 274.9134  85.1676 14.98330296 39961,6950.192,96.107,574.186,569.928,0.0
55660.0,STARLINK-5467,PAYLOAD,2023-10-28 21:48:45,14.98308288,0.0002979,70.0005,180.0241,270.5243,89.5574,0.00021889,2.518e-05,0.0,0 STARLINK-5467,1 55660U 23021AJ  23301.90885777  .00002518  00000-0  21889-3 0  9997,2 55660  70.0005 180.0241 0002979 270.5243  89.5574 14.98308288 40049,6950.26,96.108,574.196,570.055,0.0
55660.0,STARLINK-5467,PAYLOAD,2023-10-29 02:37:08,14.98332559,0.0002877,70.0,179.5181,268.2677,91.8153,-8.5198e-05,-1.109e-05,0.0,0 STARLINK-5467,1 55660U 23021AJ  23302.10913165 -.00001109  00000-0 -85198-4 0  9994,2 55660  70.0000 179.5181 0002877 268.2677  91.8153 14.98332559 39777,6950.185,96.107,574.05,570.05,0.0
55660.0,STARLINK-5467,PAYLOAD,2023-10-29 09:01:40,14.98381767,0.0003036,70.0004,178.8442,268.3618,91.7193,-0.00096134,-0.0001156,0.0,0 STARLINK-5467,1 55660U 23021AJ  23302.37616059 -.00011560  00000-0 -96134-3 0  9998,2 55660  70.0004 178.8442 0003036 268.3618  91.7193 14.98381767 39810,6950.033,96.104,574.008,569.788,0.0
55660.0,STARLINK-5467,PAYLOAD,2023-10-29 21:50:47,14.98063334,0.0001453,70.0009,177.4976,260.5356,99.5638,0.0045382,0.00054099,0.0,0 STARLINK-5467,1 55660U 23021AJ  23302.91027494  .00054099  00000-0  45382-2 0  9997,2 55660  70.0009 177.4976 0001453 260.5356  99.5638 14.98063334 39891,6951.018,96.124,573.893,571.873,0.0
55660.0,STARLINK-5467,PAYLOAD,2023-10-30 09:03:43,14.98334463,0.0002954,70.0012,176.3197,270.3051,89.777,-0.00033573,-4.097e-05,0.0,0 STARLINK-5467,1 55660U 23021AJ  23303.37758594 -.00004097  00000-0 -33573-3 0  9995,2 55660  70.0012 176.3197 0002954 270.3051  89.7770 14.98334463 39966,6950.179,96.107,574.097,569.991,0.0
55660.0,STARLINK-5467,PAYLOAD,2023-10-30 21:52:48,14.98324248,0.0002544,70.0008,174.9735,273.0143,87.0725,-0.00016336,-2.041e-05,0.0,0 STARLINK-5467,1 55660U 23021AJ  23303.91167291 -.00002041  00000-0 -16336-3 0  9998,2 55660  70.0008 174.9735 0002544 273.0143  87.0725 14.98324248 40345,6950.211,96.107,573.844,570.308,0.0
55660.0,STARLINK-5467,PAYLOAD,2023-10-31 09:05:44,14.98327498,0.0002929,70.0009,173.7953,270.8953,89.1871,-9.2546e-06,-2.03e-06,0.0,0 STARLINK-5467,1 55660U 23021AJ  23304.37898653 -.00000203  00000-0 -92546-5 0  9999,2 55660  70.0009 173.7953 0002929 270.8953  89.1871 14.98327498 40116,6950.201,96.107,574.101,570.03,0.0
55660.0,STARLINK-5467,PAYLOAD,2023-10-31 21:54:48,14.98335163,0.0002792,70.0004,172.4491,268.3664,91.7175,7.6587e-05,8.21e-06,0.0,0 STARLINK-5467,1 55660U 23021AJ  23304.91305906  .00000821  00000-0  76587-4 0  9993,2 55660  70.0004 172.4491 0002792 268.3664  91.7175 14.98335163 40498,6950.177,96.107,573.982,570.101,0.0
55660.0,STARLINK-5467,PAYLOAD,2023-11-01 01:07:04,14.98334542,0.000291,70.0,172.1122,268.6941,91.3885,7.3651e-05,7.86e-06,0.0,0 STARLINK-5467,1 55660U 23021AJ  23305.04657900  .00000786  00000-0  73651-4 0  9991,2 55660  70.0000 172.1122 0002910 268.6941  91.3885 14.98334542 40219,6950.179,96.107,574.066,570.021,0.0
55660.0,STARLINK-5467,PAYLOAD,2023-11-01 09:07:45,14.98331365,0.0002923,70.0,171.2713,258.4455,101.6376,-1.8281e-05,-3.11e-06,0.0,0 STARLINK-5467,1 55660U 23021AJ  23305.38038203 -.00000311  00000-0 -18281-4 0  9991,2 55660  70.0000 171.2713 0002923 258.4455 101.6376 14.98331365 40564,6950.189,96.107,574.085,570.022,0.0
55660.0,STARLINK-5467,PAYLOAD,2023-11-01 20:20:41,14.98324261,0.0003017,70.0,170.0934,271.8958,88.1855,4.6203e-05,4.58e-06,0.0,0 STARLINK-5467,1 55660U 23021AJ  23305.84770572  .00000458  00000-0  46203-4 0  9999,2 55660  70.0000 170.0934 0003017 271.8958  88.1855 14.98324261 40331,6950.211,96.107,574.173,569.979,0.0
55660.0,STARLINK-5467,PAYLOAD,2023-11-01 21:56:49,14.98356147,0.0003022,70.0,169.9246,271.9157,88.1656,-0.00040963,-4.981e-05,0.0,0 STARLINK-5467,1 55660U 23021AJ  23305.91446074 -.00004981  00000-0 -40963-3 0  9997,2 55660  70.0000 169.9246 0003022 271.9157  88.1656 14.98356147 40643,6950.112,96.105,574.077,569.877,0.0
55660.0,STARLINK-5467,PAYLOAD,2023-11-02 01:09:05,14.98322417,0.0002902,69.9999,169.5881,270.4569,89.6258,0.00017549,2.001e-05,0.0,0 STARLINK-5467,1 55660U 23021AJ  23306.04798346  .00002001  00000-0  17549-3 0  9997,2 55660  69.9999 169.5881 0002902 270.4569  89.6258 14.98322417 40664,6950.216,96.107,574.098,570.064,0.0
55660.0,STARLINK-5467,PAYLOAD,2023-11-02 18:46:34,14.98331481,0.000295,69.9998,167.7366,269.5411,90.541,-1.1622e-05,-2.32e-06,0.0,0 STARLINK-5467,1 55660U 23021AJ  23306.78234217 -.00000232  00000-0 -11622-4 0  9993,2 55660  69.9998 167.7366 0002950 269.5411  90.5410 14.98331481 40470,6950.188,96.107,574.104,570.003,0.0
55660.0,STARLINK-5467,PAYLOAD,2023-11-02 21:58:50,14.9833196,0.0002911,69.9999,167.4,270.2271,89.8554,1.4988e-05,8.6e-07,0.0,0 STARLINK-5467,1 55660U 23021AJ  23306.91586104  .00000086  00000-0  14988-4 0  9996,2 55660  69.9999 167.4000 0002911 270.2271  89.8554 14.98331960 40790,6950.187,96.107,574.075,570.029,0.0
55660.0,STARLINK-5467,PAYLOAD,2023-11-03 07:35:38,14.98349104,0.0002952,70.0,166.3902,275.0729,85.0093,-0.00032994,-4.029e-05,0.0,0 STARLINK-5467,1 55660U 23021AJ  23307.31641688 -.00004029  00000-0 -32994-3 0  9999,2 55660  70.0000 166.3902 0002952 275.0729  85.0093 14.98349104 40550,6950.134,96.106,574.05,569.947,0.0
55660.0,STARLINK-5467,PAYLOAD,2023-11-03 14:00:11,14.98323169,0.0003293,70.0,165.7171,268.0973,91.9809,0.0001013,1.116e-05,0.0,0 STARLINK-5467,1 55660U 23021AJ  23307.58346164  .00001116  00000-0  10130-3 0  9999,2 55660  70.0000 165.7171 0003293 268.0973  91.9809 14.98323169 40894,6950.214,96.107,574.368,569.79,0.0
55660.0,STARLINK-5467,PAYLOAD,2023-11-03 18:48:35,14.98327464,0.0003152,70.0,165.2124,267.816,92.2638,6.444e-05,6.76e-06,0.0,0 STARLINK-5467,1 55660U 23021AJ  23307.78374067  .00000676  00000-0  64440-4 0  9998,2 55660  70.0000 165.2124 0003152 267.8160  92.2638 14.98327464 40623,6950.201,96.107,574.256,569.875,0.0
